[
    {
        "Altitude(m)": 611965.2273718357,
        "Argument of Periapsis(deg)": 0.0,
        "Eccentricity": 0.0,
        "Inclination(deg)": 60.0,
        "Latitude(deg)": 59.14028892534673,
        "Longitude(deg)": 138.96992212940415,
        "Mean Anomaly(deg)": 81.81820000000003,
        "RAAN(deg)": 165.0,
        "Satellite Name": "Test1 731",
        "Satellite Number": 731,
        "Semi-Major Axis(m)": 6980739.136638005,
        "Time(s)": 0
    },
    {
        "Altitude(m)": 611995.8523489097,
        "Argument of Periapsis(deg)": 0.00010418945913296404,
        "Eccentricity": 0.0,
        "Inclination(deg)": 60.0,
        "Latitude(deg)": 59.28338764683819,
        "Longitude(deg)": 140.10328910779756,
        "Mean Anomaly(deg)": 82.43830614546184,
        "RAAN(deg)": 164.99957995086024,
        "Satellite Name": "Test1 731",
        "Satellite Number": 731,
        "Semi-Major Axis(m)": 6980739.136638005,
        "Time(s)": 10
    },
    {
        "Altitude(m)": 612024.1364325539,
        "Argument of Periapsis(deg)": 0.0002083789182659281,
        "Eccentricity": 0.0,
        "Inclination(deg)": 60.0,
        "Latitude(deg)": 59.41580426003756,
        "Longitude(deg)": 141.2461795987712,
        "Mean Anomaly(deg)": 83.05841229092367,
        "RAAN(deg)": 164.9991599017205,
        "Satellite Name": "Test1 731",
        "Satellite Number": 731,
        "Semi-Major Axis(m)": 6980739.136638005,
        "Time(s)": 20
    },
    {
        "Altitude(m)": 612050.0634041653,
        "Argument of Periapsis(deg)": 0.00031256837739889213,
        "Eccentricity": 0.0,
        "Inclination(deg)": 60.0,
        "Latitude(deg)": 59.53739934039375,
        "Longitude(deg)": 142.39796558429916,
        "Mean Anomaly(deg)": 83.67851843638552,
        "RAAN(deg)": 164.99873985258077,
        "Satellite Name": "Test1 731",
        "Satellite Number": 731,
        "Semi-Major Axis(m)": 6980739.136638005,
        "Time(s)": 30
    },
    {
        "Altitude(m)": 612073.6184053977,
        "Argument of Periapsis(deg)": 0.0004167578365318562,
        "Eccentricity": 0.0,
        "Inclination(deg)": 60.0,
        "Latitude(deg)": 59.64804271982086,
        "Longitude(deg)": 143.5579834306032,
        "Mean Anomaly(deg)": 84.29862458184735,
        "RAAN(deg)": 164.99831980344103,
        "Satellite Name": "Test1 731",
        "Satellite Number": 731,
        "Semi-Major Axis(m)": 6980739.136638005,
        "Time(s)": 40
    },
    {
        "Altitude(m)": 612094.7879451661,
        "Argument of Periapsis(deg)": 0.0005209472956648203,
        "Eccentricity": 0.0,
        "Inclination(deg)": 60.0,
        "Latitude(deg)": 59.74761413984542,
        "Longitude(deg)": 144.72553474716517,
        "Mean Anomaly(deg)": 84.91873072730914,
        "RAAN(deg)": 164.99789975430127,
        "Satellite Name": "Test1 731",
        "Satellite Number": 731,
        "Semi-Major Axis(m)": 6980739.136638005,
        "Time(s)": 50
    },
    {
        "Altitude(m)": 612113.5599059969,
        "Argument of Periapsis(deg)": 0.0006251367547977843,
        "Eccentricity": 0.0,
        "Inclination(deg)": 60.0,
        "Latitude(deg)": 59.836003871186584,
        "Longitude(deg)": 145.8998890915452,
        "Mean Anomaly(deg)": 85.53883687277097,
        "RAAN(deg)": 164.99747970516154,
        "Satellite Name": "Test1 731",
        "Satellite Number": 731,
        "Semi-Major Axis(m)": 6980739.136638005,
        "Time(s)": 60
    },
    {
        "Altitude(m)": 612129.9235497443,
        "Argument of Periapsis(deg)": 0.0007293262139307483,
        "Eccentricity": 0.0,
        "Inclination(deg)": 60.0,
        "Latitude(deg)": 59.9131132927077,
        "Longitude(deg)": 147.08028699657288,
        "Mean Anomaly(deg)": 86.15894301823282,
        "RAAN(deg)": 164.99705965602178,
        "Satellite Name": "Test1 731",
        "Satellite Number": 731,
        "Semi-Major Axis(m)": 6980739.136638005,
        "Time(s)": 70
    },
    {
        "Altitude(m)": 612143.8695226547,
        "Argument of Periapsis(deg)": 0.0008335156730637124,
        "Eccentricity": 0.0,
        "Inclination(deg)": 60.0,
        "Latitude(deg)": 59.97885542291605,
        "Longitude(deg)": 148.26594179088292,
        "Mean Anomaly(deg)": 86.77904916369465,
        "RAAN(deg)": 164.99663960688207,
        "Satellite Name": "Test1 731",
        "Satellite Number": 731,
        "Semi-Major Axis(m)": 6980739.136638005,
        "Time(s)": 80
    },
    {
        "Altitude(m)": 612155.3898597651,
        "Argument of Periapsis(deg)": 0.0009377051321966765,
        "Eccentricity": 0.0,
        "Inclination(deg)": 60.0,
        "Latitude(deg)": 60.03315539754164,
        "Longitude(deg)": 149.45604321671985,
        "Mean Anomaly(deg)": 87.3991553091565,
        "RAAN(deg)": 164.9962195577423,
        "Satellite Name": "Test1 731",
        "Satellite Number": 731,
        "Semi-Major Axis(m)": 6980739.136638005,
        "Time(s)": 90
    },
    {
        "Altitude(m)": 612164.4779886534,
        "Argument of Periapsis(deg)": 0.0010418945913296407,
        "Eccentricity": 0.0,
        "Inclination(deg)": 60.0,
        "Latitude(deg)": 60.07595088722815,
        "Longitude(deg)": 150.64976130483524,
        "Mean Anomaly(deg)": 88.01926145461833,
        "RAAN(deg)": 164.99579950860257,
        "Satellite Name": "Test1 731",
        "Satellite Number": 731,
        "Semi-Major Axis(m)": 6980739.136638005,
        "Time(s)": 100
    },
    {
        "Altitude(m)": 612171.1287325334,
        "Argument of Periapsis(deg)": 0.0011460840504626045,
        "Eccentricity": 0.0,
        "Inclination(deg)": 60.0,
        "Latitude(deg)": 60.10719244999693,
        "Longitude(deg)": 151.84624896119377,
        "Mean Anomaly(deg)": 88.63936760008013,
        "RAAN(deg)": 164.9953794594628,
        "Satellite Name": "Test1 731",
        "Satellite Number": 731,
        "Semi-Major Axis(m)": 6980739.136638005,
        "Time(s)": 110
    },
    {
        "Altitude(m)": 612175.338312696,
        "Argument of Periapsis(deg)": 0.0012502735095955685,
        "Eccentricity": 0.0,
        "Inclination(deg)": 60.0,
        "Latitude(deg)": 60.126843813884285,
        "Longitude(deg)": 153.0446462542527,
        "Mean Anomaly(deg)": 89.25947374554197,
        "RAAN(deg)": 164.99495941032308,
        "Satellite Name": "Test1 731",
        "Satellite Number": 731,
        "Semi-Major Axis(m)": 6980739.136638005,
        "Time(s)": 120
    },
    {
        "Altitude(m)": 612177.1043502715,
        "Argument of Periapsis(deg)": 0.0013544629687285324,
        "Eccentricity": 0.0,
        "Inclination(deg)": 60.0,
        "Latitude(deg)": 60.13488208601317,
        "Longitude(deg)": 154.2440848490369,
        "Mean Anomaly(deg)": 89.87957989100381,
        "RAAN(deg)": 164.99453936118334,
        "Satellite Name": "Test1 731",
        "Satellite Number": 731,
        "Semi-Major Axis(m)": 6980739.136638005,
        "Time(s)": 130
    },
    {
        "Altitude(m)": 612176.4258673681,
        "Argument of Periapsis(deg)": 0.0014586524278614966,
        "Eccentricity": 0.0,
        "Inclination(deg)": 60.0,
        "Latitude(deg)": 60.13129788530157,
        "Longitude(deg)": 155.44369103112683,
        "Mean Anomaly(deg)": 90.49968603646565,
        "RAAN(deg)": 164.9941193120436,
        "Satellite Name": "Test1 731",
        "Satellite Number": 731,
        "Semi-Major Axis(m)": 6980739.136638005,
        "Time(s)": 140
    },
    {
        "Altitude(m)": 612173.303287506,
        "Argument of Periapsis(deg)": 0.0015628418869944607,
        "Eccentricity": 0.0,
        "Inclination(deg)": 60.0,
        "Latitude(deg)": 60.116095397011364,
        "Longitude(deg)": 156.64259030009862,
        "Mean Anomaly(deg)": 91.11979218192745,
        "RAAN(deg)": 164.99369926290385,
        "Satellite Name": "Test1 731",
        "Satellite Number": 731,
        "Semi-Major Axis(m)": 6980739.136638005,
        "Time(s)": 150
    },
    {
        "Altitude(m)": 612167.7384354306,
        "Argument of Periapsis(deg)": 0.0016670313461274247,
        "Eccentricity": 0.0,
        "Inclination(deg)": 60.0,
        "Latitude(deg)": 60.089292348400555,
        "Longitude(deg)": 157.83991197210707,
        "Mean Anomaly(deg)": 91.73989832738928,
        "RAAN(deg)": 164.9932792137641,
        "Satellite Name": "Test1 731",
        "Satellite Number": 731,
        "Semi-Major Axis(m)": 6980739.136638005,
        "Time(s)": 160
    },
    {
        "Altitude(m)": 612159.7345362428,
        "Argument of Periapsis(deg)": 0.0017712208052603888,
        "Eccentricity": 0.0,
        "Inclination(deg)": 60.0,
        "Latitude(deg)": 60.050919905811696,
        "Longitude(deg)": 159.03479223110384,
        "Mean Anomaly(deg)": 92.36000447285112,
        "RAAN(deg)": 164.99285916462438,
        "Satellite Name": "Test1 731",
        "Satellite Number": 731,
        "Semi-Major Axis(m)": 6980739.136638005,
        "Time(s)": 170
    },
    {
        "Altitude(m)": 612149.2962138839,
        "Argument of Periapsis(deg)": 0.001875410264393353,
        "Eccentricity": 0.0,
        "Inclination(deg)": 60.0,
        "Latitude(deg)": 60.001022494583474,
        "Longitude(deg)": 160.2263786076434,
        "Mean Anomaly(deg)": 92.98011061831295,
        "RAAN(deg)": 164.99243911548464,
        "Satellite Name": "Test1 731",
        "Satellite Number": 731,
        "Semi-Major Axis(m)": 6980739.136638005,
        "Time(s)": 180
    },
    {
        "Altitude(m)": 612136.4294889411,
        "Argument of Periapsis(deg)": 0.0019795997235263173,
        "Eccentricity": 0.0,
        "Inclination(deg)": 60.0,
        "Latitude(deg)": 59.93965754420847,
        "Longitude(deg)": 161.4138343274375,
        "Mean Anomaly(deg)": 93.60021676377481,
        "RAAN(deg)": 164.99201906634488,
        "Satellite Name": "Test1 731",
        "Satellite Number": 731,
        "Semi-Major Axis(m)": 6980739.136638005,
        "Time(s)": 190
    }
]